NORAD_CAT_ID,OBJECT_NAME,OBJECT_TYPE,EPOCH,MEAN_MOTION,ECCENTRICITY,INCLINATION,RA_OF_ASC_NODE,ARG_OF_PERICENTER,MEAN_ANOMALY,BSTAR,MEAN_MOTION_DOT,MEAN_MOTION_DDOT,TLE_LINE0,TLE_LINE1,TLE_LINE2,SEMIMAJOR_AXIS,PERIOD,APOGEE,PERIGEE,DECAYED
53985.0,STARLINK-5147,PAYLOAD,2022-11-25 22:00:00,15.40143886,0.0001131,53.2172,201.7426,92.7254,287.9582,-0.031356,-0.01163405,0.0,0 STARLINK-5147,1 53985U 22125X   22329.91667824 -.01163405  00000-0 -31356-1 0  9994,2 53985  53.2172 201.7426 0001131  92.7254 287.9582 15.40143886  1304,6823.821,93.498,446.458,444.915,0.0
53985.0,STARLINK-5147,PAYLOAD,2022-11-26 12:00:00,15.38714887,0.0001104,53.2168,198.9972,77.6899,297.5633,-0.032554,-0.0115304,0.0,0 STARLINK-5147,1 53985U 22125X   22330.50001157 -.01153040  00000-0 -32554-1 0  9997,2 53985  53.2168 198.9972 0001104  77.6899 297.5633 15.38714887  8470,6828.045,93.585,450.664,449.157,0.0
53985.0,STARLINK-5147,PAYLOAD,2022-11-26 14:00:01,15.38510234,0.0001315999999999,53.217,198.6056,75.0538,42.0389,-0.032823,-0.01154666,0.0,0 STARLINK-5147,1 53985U 22125X   22330.58334491 -.01154666  00000-0 -32823-1 0  9999,2 53985  53.2170 198.6056 0001316  75.0538  42.0389 15.38510234  1306,6828.651,93.597,451.415,449.617,0.0
53985.0,STARLINK-5147,PAYLOAD,2022-11-26 22:00:00,15.37711285,0.0001266,53.2171,197.042,88.9668,74.854,-0.034337,-0.01174729,0.0,0 STARLINK-5147,1 53985U 22125X   22330.91667824 -.01174729  00000-0 -34337-1 0  9999,2 53985  53.2171 197.0420 0001266  88.9668  74.8540 15.37711285  1306,6831.016,93.646,453.746,452.016,0.0
53985.0,STARLINK-5147,PAYLOAD,2022-11-27 12:00:00,15.36266746,0.0001386999999999,53.2167,194.3067,65.866,87.3987,-0.034966,-0.01144192,0.0,0 STARLINK-5147,1 53985U 22125X   22331.50001157 -.01144192  00000-0 -34966-1 0  9995,2 53985  53.2167 194.3067 0001387  65.8660  87.3987 15.36266746  8620,6835.297,93.734,458.111,456.214,0.0
53985.0,STARLINK-5147,PAYLOAD,2022-11-27 14:00:01,15.36064995,0.0001315,53.2168,193.9164,73.568,180.8004,-0.035315,-0.01147733,0.0,0 STARLINK-5147,1 53985U 22125X   22331.58334491 -.01147733  00000-0 -35315-1 0  9996,2 53985  53.2168 193.9164 0001315  73.5680 180.8004 15.36064995  1302,6835.896,93.746,458.66,456.862,0.0
53985.0,STARLINK-5147,PAYLOAD,2022-11-27 22:00:00,15.35264528,0.0001219,53.2171,192.3591,93.574,204.5895,-0.036881,-0.01166243,0.0,0 STARLINK-5147,1 53985U 22125X   22331.91667824 -.01166243  00000-0 -36881-1 0  9998,2 53985  53.2171 192.3591 0001219  93.5740 204.5895 15.35264528  1300,6838.272,93.795,460.97,459.30300000000005,0.0
53985.0,STARLINK-5147,PAYLOAD,2022-11-28 04:00:00,15.34659926,0.0001262999999999,53.2162,191.191,79.3192,161.0502,-0.037804,-0.01171892,0.0,0 STARLINK-5147,1 53985U 22125X   22332.16667824 -.01171892  00000-0 -37804-1 0  9998,2 53985  53.2162 191.1910 0001263  79.3192 161.0502 15.34659926  8728,6840.068,93.832,462.797,461.069,0.0
53985.0,STARLINK-5147,PAYLOAD,2022-11-28 22:00:01,15.32819042,0.0001224,53.2171,187.6931,87.4635,336.3064,-0.039678,-0.01160918,0.0,0 STARLINK-5147,1 53985U 22125X   22332.91668981 -.01160918  00000-0 -39678-1 0  9994,2 53985  53.2171 187.6931 0001224  87.4635 336.3064 15.32819042  1302,6845.543000000002,93.945,468.246,466.57,0.0
53985.0,STARLINK-5147,PAYLOAD,2022-11-29 06:00:00,15.31995364,0.0001244,53.2167,186.1407,71.7116,31.8909,-0.040186,-0.01146906,0.0,0 STARLINK-5147,1 53985U 22125X   22333.25001157 -.01146906  00000-0 -40186-1 0  9995,2 53985  53.2167 186.1407 0001244  71.7116  31.8909 15.31995364  8898,6847.996999999999,93.995,470.714,469.01,0.0
53985.0,STARLINK-5147,PAYLOAD,2022-11-29 14:00:01,15.311913199999998,0.0001375999999999,53.2167,184.5904,73.4129,69.1613,-0.041673,-0.01158554,0.0,0 STARLINK-5147,1 53985U 22125X   22333.58335648 -.01158554  00000-0 -41673-1 0  9990,2 53985  53.2167 184.5904 0001376  73.4129  69.1613 15.31191320  1306,6850.394,94.044,473.201,471.316,0.0
53985.0,STARLINK-5147,PAYLOAD,2022-11-29 22:00:00,15.3036754,0.0001406,53.217,183.0445,91.3763,89.0738,-0.042247,-0.01145849,0.0,0 STARLINK-5147,1 53985U 22125X   22333.91667824 -.01145849  00000-0 -42247-1 0  9992,2 53985  53.2170 183.0445 0001406  91.3763  89.0738 15.30367540  1308,6852.852,94.095,475.68,473.753,0.0
53985.0,STARLINK-5147,PAYLOAD,2022-11-30 04:00:00,15.29750632,0.0001246,53.2171,181.8837,89.0189,29.2448,-0.042669,-0.01136152,0.0,0 STARLINK-5147,1 53985U 22125X   22334.16667824 -.01136152  00000-0 -42669-1 0  9995,2 53985  53.2171 181.8837 0001246  89.0189  29.2448 15.29750632  9036,6854.694,94.133,477.413,475.705,0.0
53985.0,STARLINK-5147,PAYLOAD,2022-11-30 14:00:01,15.28733427,0.0001379,53.2175,179.9523,104.0382,149.417,-0.044006,-0.01135488,0.0,0 STARLINK-5147,1 53985U 22125X   22334.58335648 -.01135488  00000-0 -44006-1 0  9995,2 53985  53.2175 179.9523 0001379 104.0382 149.4170 15.28733427  1301,6857.734,94.196,480.545,478.654,0.0
53985.0,STARLINK-5147,PAYLOAD,2022-11-30 20:00:01,15.28122134,0.0001398,53.2174,178.7974,93.4995,96.2347,-0.044827,-0.01135115,0.0,0 STARLINK-5147,1 53985U 22125X   22334.83334491 -.01135115  00000-0 -44827-1 0  9996,2 53985  53.2174 178.7974 0001398  93.4995  96.2347 15.28122134  9130,6859.563,94.233,482.387,480.469,0.0
53985.0,STARLINK-5147,PAYLOAD,2022-11-30 22:00:00,15.27919809,0.0001304,53.2175,178.4125,99.5725,188.8196,-0.045161,-0.01136338,0.0,0 STARLINK-5147,1 53985U 22125X   22334.91667824 -.01136338  00000-0 -45161-1 0  9994,2 53985  53.2175 178.4125 0001304  99.5725 188.8196 15.27919809  1304,6860.169,94.246,482.92800000000005,481.139,0.0
53985.0,STARLINK-5147,PAYLOAD,2022-12-01 14:00:01,15.26290916,0.0001161,53.2176,175.3327,90.4822,264.981,-0.047327,-0.01133226,0.0,0 STARLINK-5147,1 53985U 22125X   22335.58334491 -.01133226  00000-0 -47327-1 0  9998,2 53985  53.2176 175.3327 0001161  90.4822 264.9810 15.26290916  1303,6865.049,94.346,487.711,486.117,0.0
53985.0,STARLINK-5147,PAYLOAD,2022-12-01 20:00:01,15.25697135,0.0001304,53.217,174.183,90.9122,198.7462,-0.049154,-0.01169566,0.0,0 STARLINK-5147,1 53985U 22125X   22335.83335648 -.01169566  00000-0 -49154-1 0  9997,2 53985  53.2170 174.1830 0001304  90.9122 198.7462 15.25697135  9285,6866.83,94.383,489.59,487.799,0.0
53985.0,STARLINK-5147,PAYLOAD,2022-12-01 22:00:00,15.2548916,0.0001202,53.217,173.7995,81.8718,305.6523,-0.049312,-0.01166216,0.0,0 STARLINK-5147,1 53985U 22125X   22335.91667824 -.01166216  00000-0 -49312-1 0  9995,2 53985  53.2170 173.7995 0001202  81.8718 305.6523 15.25489160  1308,6867.454000000002,94.396,490.144,488.494,0.0
53985.0,STARLINK-5147,PAYLOAD,2022-12-02 14:00:01,15.23872658,0.00013,53.2166,170.7309,75.232,13.4896,-0.052398,-0.01179242,0.0,0 STARLINK-5147,1 53985U 22125X   22336.58334491 -.01179242  00000-0 -52398-1 0  9991,2 53985  53.2166 170.7309 0001300  75.2320  13.4896 15.23872658  1307,6872.31,94.496,495.068,493.281,0.0
53985.0,STARLINK-5147,PAYLOAD,2022-12-02 20:00:01,15.23267364,0.0001179,53.2169,169.5848,89.1288,291.5289,-0.053513,-0.01182425,0.0,0 STARLINK-5147,1 53985U 22125X   22336.83334491 -.01182425  00000-0 -53513-1 0  9996,2 53985  53.2169 169.5848 0001179  89.1288 291.5289 15.23267364  9445,6874.13,94.534,496.806,495.185,0.0
53985.0,STARLINK-5147,PAYLOAD,2022-12-02 22:00:00,15.23057418,0.0001328,53.217,169.2026,86.4501,31.4062,-0.053655,-0.01178519,0.0,0 STARLINK-5147,1 53985U 22125X   22336.91667824 -.01178519  00000-0 -53655-1 0  9990,2 53985  53.2170 169.2026 0001328  86.4501  31.4062 15.23057418  1300,6874.762,94.547,497.54,495.714,0.0
53985.0,STARLINK-5147,PAYLOAD,2022-12-03 14:00:01,15.21433959,0.0001426999999999,53.2168,166.1456,81.5747,91.6158,-0.056525,-0.01182796,0.0,0 STARLINK-5147,1 53985U 22125X   22337.58334491 -.01182796  00000-0 -56525-1 0  9996,2 53985  53.2168 166.1456 0001427  81.5747  91.6158 15.21433959  1308,6879.651,94.648,502.49800000000016,500.535,0.0
53985.0,STARLINK-5147,PAYLOAD,2022-12-03 22:00:00,15.20606293,0.0001409999999999,53.2171,164.6227,83.7483,115.6496,-0.056945,-0.01164402,0.0,0 STARLINK-5147,1 53985U 22125X   22337.91667824 -.01164402  00000-0 -56945-1 0  9992,2 53985  53.2171 164.6227 0001410  83.7483 115.6496 15.20606293  1308,6882.148,94.699,504.983,503.042,0.0
53985.0,STARLINK-5147,PAYLOAD,2022-12-04 04:00:00,15.20021438,0.000143,53.2167,163.4797,71.6898,56.7007,-0.05948,-0.01193071,0.0,0 STARLINK-5147,1 53985U 22125X   22338.16667824 -.01193071  00000-0 -59480-1 0  9991,2 53985  53.2167 163.4797 0001430  71.6898  56.7007 15.20021438  9640,6883.913000000001,94.736,506.762,504.793,0.0
53985.0,STARLINK-5147,PAYLOAD,2022-12-04 14:00:01,15.18990657,0.0001355,53.2168,161.5774,91.0508,157.8101,-0.060566,-0.01179912,0.0,0 STARLINK-5147,1 53985U 22125X   22338.58334491 -.01179912  00000-0 -60566-1 0  9993,2 53985  53.2168 161.5774 0001355  91.0508 157.8101 15.18990657  1303,6887.026999999999,94.8,509.825,507.959,0.0
53985.0,STARLINK-5147,PAYLOAD,2022-12-04 20:00:01,15.18374885,0.0001405,53.2169,160.4398,86.4411,89.9633,-0.061204,-0.0117187,0.0,0 STARLINK-5147,1 53985U 22125X   22338.83334491 -.01171870  00000-0 -61204-1 0  9996,2 53985  53.2169 160.4398 0001405  86.4411  89.9633 15.18374885  9741,6888.889,94.838,511.722,509.786,0.0
53985.0,STARLINK-5147,PAYLOAD,2022-12-04 22:00:00,15.18156478,0.0001308,53.217,160.0604,92.7176,179.42,-0.060465,-0.01152039,0.0,0 STARLINK-5147,1 53985U 22125X   22338.91667824 -.01152039  00000-0 -60465-1 0  9998,2 53985  53.2170 160.0604 0001308  92.7176 179.4200 15.18156478  1304,6889.549,94.852,512.316,510.513,0.0
53985.0,STARLINK-5147,PAYLOAD,2022-12-05 14:00:01,15.1655967,0.0001252999999999,53.2167,157.0261,88.9742,226.8134,-0.065788,-0.01193398,0.0,0 STARLINK-5147,1 53985U 22125X   22339.58335648 -.01193398  00000-0 -65788-1 0  9994,2 53985  53.2167 157.0261 0001253  88.9742 226.8134 15.16559670  1302,6894.385,94.952,517.113,515.386,0.0
